NORAD_CAT_ID,OBJECT_NAME,OBJECT_TYPE,EPOCH,MEAN_MOTION,ECCENTRICITY,INCLINATION,RA_OF_ASC_NODE,ARG_OF_PERICENTER,MEAN_ANOMALY,BSTAR,MEAN_MOTION_DOT,MEAN_MOTION_DDOT,TLE_LINE0,TLE_LINE1,TLE_LINE2,SEMIMAJOR_AXIS,PERIOD,APOGEE,PERIGEE,DECAYED
55652.0,STARLINK-5487,PAYLOAD,2024-06-30 18:21:37,14.98336344,0.000297,70.0006,299.8777,268.8339,91.248,1.1196e-05,4.1e-07,0.0,0 STARLINK-5487,1 55652U 23021AA  24182.76501532  .00000041  00000-0  11196-4 0  9994,2 55652  70.0006 299.8777 0002970 268.8339  91.2480 14.98336344 76084,6950.173,96.107,574.102,569.974,0.0
55652.0,STARLINK-5487,PAYLOAD,2024-07-01 13:35:14,14.98328216,0.0002808,70.001,297.8582,268.412,91.6717,9.4914e-05,1.04e-05,0.0,0 STARLINK-5487,1 55652U 23021AA  24183.56613929  .00001040  00000-0  94914-4 0  9996,2 55652  70.0010 297.8582 0002808 268.4120  91.6717 14.98328216 76205,6950.198,96.107,574.015,570.112,0.0
55652.0,STARLINK-5487,PAYLOAD,2024-07-01 16:47:30,14.98328362,0.0002867,70.0009,297.5215,269.5832,90.4999,0.00013104,1.471e-05,0.0,0 STARLINK-5487,1 55652U 23021AA  24183.69965862  .00001471  00000-0  13104-3 0  9995,2 55652  70.0009 297.5215 0002867 269.5832  90.4999 14.98328362 76526,6950.198,96.107,574.056,570.07,0.0
55652.0,STARLINK-5487,PAYLOAD,2024-07-02 13:37:15,14.983251,0.0002819,70.0009,295.3335,266.8316,93.2521,3.2808e-05,2.98e-06,0.0,0 STARLINK-5487,1 55652U 23021AA  24184.56754395  .00000298  00000-0  32808-4 0  9998,2 55652  70.0009 295.3335 0002819 266.8316  93.2521 14.98325100 76359,6950.208,96.107,574.032,570.114,0.0
55652.0,STARLINK-5487,PAYLOAD,2024-07-02 16:49:31,14.98328533,0.0002825,70.0008,294.9969,266.1451,93.9385,4.3819e-05,4.3e-06,0.0,0 STARLINK-5487,1 55652U 23021AA  24184.70106151  .00000430  00000-0  43819-4 0  9997,2 55652  70.0008 294.9969 0002825 266.1451  93.9385 14.98328533 76679,6950.197,96.107,574.026,570.099,0.0
55652.0,STARLINK-5487,PAYLOAD,2024-07-03 13:39:16,14.98329408,0.0003043,70.0002,292.8076,266.8795,93.2016,2.5552e-05,2.12e-06,0.0,0 STARLINK-5487,1 55652U 23021AA  24185.56894239  .00000212  00000-0  25552-4 0  9995,2 55652  70.0002 292.8076 0003043 266.8795  93.2016 14.98329408 76508,6950.195,96.107,574.175,569.945,0.0
55652.0,STARLINK-5487,PAYLOAD,2024-07-03 16:51:32,14.98330571,0.000302,70.0004,292.4713,267.2214,92.86,3.7506e-05,3.55e-06,0.0,0 STARLINK-5487,1 55652U 23021AA  24185.70246150  .00000355  00000-0  37506-4 0  9994,2 55652  70.0004 292.4713 0003020 267.2214  92.8600 14.98330571 76822,6950.191,96.107,574.155,569.957,0.0
55652.0,STARLINK-5487,PAYLOAD,2024-07-04 13:41:17,14.98332333,0.0003497,69.9997,290.2829,273.0927,86.9831,0.00013343,1.499e-05,0.0,0 STARLINK-5487,1 55652U 23021AA  24186.57033775  .00001499  00000-0  13343-3 0  9999,2 55652  69.9997 290.2829 0003497 273.0927  86.9831 14.98332333 76657,6950.186,96.107,574.481,569.62,0.0
55652.0,STARLINK-5487,PAYLOAD,2024-07-04 16:53:33,14.98336701,0.0003212,69.9997,289.9461,266.8948,93.1844,0.00013341,1.499e-05,0.0,0 STARLINK-5487,1 55652U 23021AA  24186.70385462  .00001499  00000-0  13341-3 0  9995,2 55652  69.9997 289.9461 0003212 266.8948  93.1844 14.98336701 76974,6950.172,96.107,574.27,569.805,0.0
55652.0,STARLINK-5487,PAYLOAD,2024-07-05 13:43:17,14.98336441,0.0003057,70.0004,287.7593,265.9557,94.1253,0.00011511,1.281e-05,0.0,0 STARLINK-5487,1 55652U 23021AA  24187.57173455  .00001281  00000-0  11511-3 0  9994,2 55652  70.0004 287.7593 0003057 265.9557  94.1253 14.98336441 76809,6950.173,96.107,574.163,569.913,0.0
55652.0,STARLINK-5487,PAYLOAD,2024-07-05 16:55:33,14.98339616,0.000302,70.0004,287.4223,265.9004,94.181,0.00014812,1.675e-05,0.0,0 STARLINK-5487,1 55652U 23021AA  24187.70525125  .00001675  00000-0  14812-3 0  9998,2 55652  70.0004 287.4223 0003020 265.9004  94.1810 14.98339616 77125,6950.163,96.106,574.127,569.929,0.0
55652.0,STARLINK-5487,PAYLOAD,2024-07-06 05:44:40,14.98259056,0.0003174,70.0006,286.0757,261.9602,98.1197,0.0012915,0.00015323,0.0,0 STARLINK-5487,1 55652U 23021AA  24188.23935238  .00015323  00000-0  12915-2 0  9993,2 55652  70.0006 286.0757 0003174 261.9602  98.1197 14.98259056 76900,6950.412,96.112,574.483,570.071,0.0
55652.0,STARLINK-5487,PAYLOAD,2024-07-06 12:09:11,14.98322746,0.0002966,70.0004,285.4016,269.6385,90.4435,5.4384e-05,5.56e-06,0.0,0 STARLINK-5487,1 55652U 23021AA  24188.50638292  .00000556  00000-0  54384-4 0  9993,2 55652  70.0004 285.4016 0002966 269.6385  90.4435 14.98322746 76941,6950.215,96.107,574.142,570.019,0.0
55652.0,STARLINK-5487,PAYLOAD,2024-07-06 13:45:19,14.98328488,0.0002904,70.0005,285.2341,266.5604,93.5223,-4.5872e-05,-6.4e-06,0.0,0 STARLINK-5487,1 55652U 23021AA  24188.57314096 -.00000640  00000-0 -45872-4 0  9991,2 55652  70.0005 285.2341 0002904 266.5604  93.5223 14.98328488 77256,6950.198,96.107,574.081,570.044,0.0
55652.0,STARLINK-5487,PAYLOAD,2024-07-06 16:57:35,14.98329549,0.0002896,70.0005,284.8975,266.5433,93.5395,-3.4806e-05,-5.08e-06,0.0,0 STARLINK-5487,1 55652U 23021AA  24188.70665990 -.00000508  00000-0 -34806-4 0  9996,2 55652  70.0005 284.8975 0002896 266.5433  93.5395 14.98329549 77275,6950.194,96.107,574.072,570.047,0.0
55652.0,STARLINK-5487,PAYLOAD,2024-07-07 12:11:11,14.98333756,0.0002964,70.0003,282.8774,265.2259,94.8561,-2.2785e-05,-3.65e-06,0.0,0 STARLINK-5487,1 55652U 23021AA  24189.50777617 -.00000365  00000-0 -22785-4 0  9999,2 55652  70.0003 282.8774 0002964 265.2259  94.8561 14.98333756 77090,6950.181,96.107,574.106,569.986,0.0
55652.0,STARLINK-5487,PAYLOAD,2024-07-07 13:47:19,14.98333208,0.0002968,70.0003,282.7091,265.277,94.805,-2.8378e-05,-4.32e-06,0.0,0 STARLINK-5487,1 55652U 23021AA  24189.57453652 -.00000432  00000-0 -28378-4 0  9995,2 55652  70.0003 282.7091 0002968 265.2770  94.8050 14.98333208 77403,6950.183,96.107,574.111,569.985,0.0
55652.0,STARLINK-5487,PAYLOAD,2024-07-08 12:13:12,14.9832741,0.0003049,70.0002,280.3521,264.6838,95.3973,4.9713e-05,5e-06,0.0,0 STARLINK-5487,1 55652U 23021AA  24190.50917793  .00000500  00000-0  49713-4 0  9991,2 55652  70.0002 280.3521 0003049 264.6838  95.3973 14.98327410 77243,6950.201,96.107,574.185,569.947,0.0
55652.0,STARLINK-5487,PAYLOAD,2024-07-08 13:49:20,14.98328657,0.0003043,70.0001,280.1836,266.159,93.9221,6.0818e-05,6.33e-06,0.0,0 STARLINK-5487,1 55652U 23021AA  24190.57593700  .00000633  00000-0  60818-4 0  9992,2 55652  70.0001 280.1836 0003043 266.1590  93.9221 14.98328657 77553,6950.197,96.107,574.177,569.947,0.0
55652.0,STARLINK-5487,PAYLOAD,2024-07-08 15:25:28,14.98329765,0.000304,70.0001,280.0152,266.5372,93.544,7.1816e-05,7.64e-06,0.0,0 STARLINK-5487,1 55652U 23021AA  24190.64269608  .00000764  00000-0  71816-4 0  9992,2 55652  70.0001 280.0152 0003040 266.5372  93.5440 14.98329765 77563,6950.194,96.107,574.171,569.946,0.0
55652.0,STARLINK-5487,PAYLOAD,2024-07-09 12:15:13,14.98333662,0.0003135,69.9999,277.8275,269.0881,90.9918,5.6537e-05,5.82e-06,0.0,0 STARLINK-5487,1 55652U 23021AA  24191.51057363  .00000582  00000-0  56537-4 0  9993,2 55652  69.9999 277.8275 0003135 269.0881  90.9918 14.98333662 77397,6950.182,96.107,574.225,569.868,0.0
55652.0,STARLINK-5487,PAYLOAD,2024-07-09 13:51:21,14.98334135,0.0003125,69.9999,277.6592,269.1876,90.8925,6.1814e-05,6.45e-06,0.0,0 STARLINK-5487,1 55652U 23021AA  24191.57733306  .00000645  00000-0  61814-4 0  9991,2 55652  69.9999 277.6592 0003125 269.1876  90.8925 14.98334135 77709,6950.18,96.107,574.217,569.873,0.0
55652.0,STARLINK-5487,PAYLOAD,2024-07-09 15:27:29,14.98334644,0.0003121,69.9999,277.4909,269.2384,90.8417,6.67e-05,7.03e-06,0.0,0 STARLINK-5487,1 55652U 23021AA  24191.64409246  .00000703  00000-0  66700-4 0  9996,2 55652  69.9999 277.4909 0003121 269.2384  90.8417 14.98334644 77712,6950.179,96.107,574.213,569.874,0.0
55652.0,STARLINK-5487,PAYLOAD,2024-07-10 12:17:14,14.98328234,0.0002955,69.9997,275.3005,262.0158,98.0665,2.5715e-05,2.14e-06,0.0,0 STARLINK-5487,1 55652U 23021AA  24192.51197749  .00000214  00000-0  25715-4 0  9993,2 55652  69.9997 275.3005 0002955 262.0158  98.0665 14.98328234 77542,6950.198,96.107,574.117,570.01,0.0
55652.0,STARLINK-5487,PAYLOAD,2024-07-11 13:55:23,14.9833727,0.0002881,70.0004,272.6081,266.9718,93.1112,7.3564e-05,7.85e-06,0.0,0 STARLINK-5487,1 55652U 23021AA  24193.58012866  .00000785  00000-0  73564-4 0  9995,2 55652  70.0004 272.6081 0002881 266.9718  93.1112 14.98337270 78006,6950.17,96.107,574.038,570.033,0.0
55652.0,STARLINK-5487,PAYLOAD,2024-07-12 13:57:23,14.983367,0.0002322,70.0018,270.0842,256.7374,103.3526,0.00024378,2.817e-05,0.0,0 STARLINK-5487,1 55652U 23021AA  24194.58152240  .00002817  00000-0  24378-3 0  9993,2 55652  70.0018 270.0842 0002322 256.7374 103.3526 14.98336700 78159,6950.172,96.107,573.651,570.423,0.0
55652.0,STARLINK-5487,PAYLOAD,2024-07-12 21:58:03,14.98338128,0.0002897,70.0001,269.2395,277.0172,83.0658,6.2602e-05,6.54e-06,0.0,0 STARLINK-5487,1 55652U 23021AA  24194.91532343  .00000654  00000-0  62602-4 0  9996,2 55652  70.0001 269.2395 0002897 277.0172  83.0658 14.98338128 78205,6950.168,96.106,574.046,570.019,0.0
55652.0,STARLINK-5487,PAYLOAD,2024-07-13 04:22:36,14.98334773,0.0002434,70.0011,268.5696,265.5117,94.5764,8.7292e-06,1.1e-07,0.0,0 STARLINK-5487,1 55652U 23021AA  24195.18236739  .00000011  00000-0  87292-5 0  9996,2 55652  70.0011 268.5696 0002434 265.5117  94.5764 14.98334773 77947,6950.178,96.107,573.735,570.351,0.0
55652.0,STARLINK-5487,PAYLOAD,2024-07-13 12:23:17,14.98323748,0.000281,70.0012,267.7291,264.3164,95.7675,-0.00011567,-1.473e-05,0.0,0 STARLINK-5487,1 55652U 23021AA  24195.51617699 -.00001473  00000-0 -11567-3 0  9996,2 55652  70.0012 267.7291 0002810 264.3164  95.7675 14.98323748 77996,6950.212,96.107,574.03,570.124,0.0
55652.0,STARLINK-5487,PAYLOAD,2024-07-13 13:59:26,14.98321256,0.0002816,70.0006,267.5605,263.9329,96.1509,-0.00016797,-2.096e-05,0.0,0 STARLINK-5487,1 55652U 23021AA  24195.58293989 -.00002096  00000-0 -16797-3 0  9997,2 55652  70.0006 267.5605 0002816 263.9329  96.1509 14.98321256 78309,6950.22,96.108,574.042,570.128,0.0
